{
    "links": {
        "self": "http://www.neowsapp.com/rest/v1/neo/3778067?api_key=iIulBulltgU6a56xZRHN4H3l9WmuAYTsLGpBGhQ2"
    },
    "id": "3778067",
    "neo_reference_id": "3778067",
    "name": "(2017 OH1)",
    "designation": "2017 OH1",
    "nasa_jpl_url": "http://ssd.jpl.nasa.gov/sbdb.cgi?sstr=3778067",
    "absolute_magnitude_h": 27.1,
    "estimated_diameter": {
        "kilometers": {
            "estimated_diameter_min": 0.0101054342,
            "estimated_diameter_max": 0.0225964377
        },
        "meters": {
            "estimated_diameter_min": 10.1054341542,
            "estimated_diameter_max": 22.5964377109
        },
        "miles": {
            "estimated_diameter_min": 0.0062792237,
            "estimated_diameter_max": 0.0140407711
        },
        "feet": {
            "estimated_diameter_min": 33.1543125905,
            "estimated_diameter_max": 74.1352966996
        }
    },
    "is_potentially_hazardous_asteroid": false,
    "close_approach_data": [
        {
            "close_approach_date": "2017-07-18",
            "close_approach_date_full": "2017-Jul-18 23:42",
            "epoch_date_close_approach": 1500421320000,
            "relative_velocity": {
                "kilometers_per_second": "18.7245588307",
                "kilometers_per_hour": "67408.4117903969",
                "miles_per_hour": "41884.9656483163"
            },
            "miss_distance": {
                "astronomical": "0.0047005537",
                "lunar": "1.8285153893",
                "kilometers": "703192.821340619",
                "miles": "436943.7578297822"
            },
            "orbiting_body": "Moon"
        },
        {
            "close_approach_date": "2017-07-19",
            "close_approach_date_full": "2017-Jul-19 01:50",
            "epoch_date_close_approach": 1500429000000,
            "relative_velocity": {
                "kilometers_per_second": "17.7515436067",
                "kilometers_per_hour": "63905.5569840491",
                "miles_per_hour": "39708.4278937832"
            },
            "miss_distance": {
                "astronomical": "0.0041892776",
                "lunar": "1.6296289864",
                "kilometers": "626707.005798712",
                "miles": "389417.6758657456"
            },
            "orbiting_body": "Earth"
        }
    ],
    "orbital_data": {
        "orbit_id": "1",
        "orbit_determination_date": "2017-07-22 16:12:05",
        "first_observation_date": "2017-07-21",
        "last_observation_date": "2017-07-22",
        "data_arc_in_days": 1,
        "observations_used": 15,
        "orbit_uncertainty": "8",
        "minimum_orbit_intersection": ".00416997",
        "jupiter_tisserand_invariant": "3.712",
        "epoch_osculation": "2457956.5",
        "eccentricity": ".632343453655936",
        "semi_major_axis": "1.869478887956422",
        "inclination": ".8244191098309998",
        "ascending_node_longitude": "279.6712550040469",
        "orbital_period": "933.6396226395892",
        "perihelion_distance": ".6873261514091994",
        "perihelion_argument": "296.2038432214558",
        "aphelion_distance": "3.051631624503644",
        "perihelion_time": "2457905.034557657561",
        "mean_anomaly": "19.84444403815774",
        "mean_motion": ".3855877484957277",
        "equinox": "J2000",
        "orbit_class": {
            "orbit_class_type": "APO",
            "orbit_class_description": "Near-Earth asteroid orbits which cross the Earth’s orbit similar to that of 1862 Apollo",
            "orbit_class_range": "a (semi-major axis) > 1.0 AU; q (perihelion) < 1.017 AU"
        }
    },
    "is_sentry_object": false
}